UWE-3                   
1 39446U 13066AG  18034.94455732  .00000153  00000-0  27338-4 0  9993
2 39446  97.6051  63.9622 0068943 249.8128 109.5660 14.78139507224840
BRITE-TORONTO           
1 40020U 14033L   18034.62230423  .00000027  00000-0  13384-4 0  9997
2 40020  97.8040 259.5727 0086552 311.0451  48.3296 14.66465319193891
DUCHIFAT-1              
1 40021U 14033M   18035.18048381  .00000433  00000-0  50556-4 0  9993
2 40021  97.9180 313.6607 0011607 256.4099 103.5825 14.90187321197141
FLOCK 1C-10             
1 40023U 14033P   18035.18652965  .00000759  00000-0  86385-4 0  9994
2 40023  97.9206 312.4423 0011613 265.3168  94.6730 14.89118713197027
NANOSATC-BR1            
1 40024U 14033Q   18034.75341849  .00000246  00000-0  31800-4 0  9996
2 40024  97.9124 311.7303 0010860 259.6581 100.3412 14.89467594197019
QB50P1                  
1 40025U 14033R   18034.72544789  .00000211  00000-0  28641-4 0  9993
2 40025  97.9093 310.3770 0011118 264.0840  95.9109 14.88628368196932
FLOCK 1C-7              
1 40026U 14033S   18034.75271289  .00000180  00000-0  24713-4 0  9990
2 40026  97.9245 313.0541 0009929 263.5885  96.4191 14.89859419197020
FLOCK 1C-1              
1 40027U 14033T   18034.74177470  .00000788  00000-0  89341-4 0  9999
2 40027  97.9208 312.2928 0011759 264.9471  95.0449 14.89179799196970
POPSAT-HIP-1            
1 40028U 14033U   18035.18132185 -.00000011  00000-0  48999-5 0  9998
2 40028  97.9127 311.1782 0012178 262.4293  97.5543 14.88486568196985
FLOCK 1C-2              
1 40029U 14033V   18034.76678844  .00000260  00000-0  33542-4 0  9991
2 40029  97.9205 312.1595 0012659 259.2557 100.7276 14.89216717196963
FLOCK 1C-4              
1 40031U 14033X   18034.74071526  .00000501  00000-0  59203-4 0  9996
2 40031  97.9214 312.0638 0013151 257.7969 102.1735 14.89042627196953
QB50P2                  
1 40032U 14033Y   18035.17847419  .00000227  00000-0  30733-4 0  9999
2 40032  97.9054 309.6930 0010519 257.0701 102.9341 14.88178192196941
FLOCK 1C-11             
1 40033U 14033Z   18034.77505881  .00000145  00000-0  20794-4 0  9994
2 40033  97.9241 314.0837 0010983 249.4588 110.5505 14.90423866197086
ANTELSAT                
1 40034U 14033AA  18035.21008143  .00000168  00000-0  32825-4 0  9997
2 40034  97.8303 276.5519 0057548 266.3977  93.0649 14.73856676195095
FLOCK 1C-9              
1 40035U 14033AB  18034.74803605  .00000389  00000-0  47086-4 0  9991
2 40035  97.9233 312.6090 0010531 253.1426 106.8631 14.89252782196976
FLOCK 1C-6              
1 40036U 14033AC  18034.81976233  .00000404  00000-0  48570-4 0  9995
2 40036  97.9254 312.9562 0010756 253.0033 107.0010 14.89359501196992
PERSEUS-M2              
1 40037U 14033AD  18034.72012107  .00000093  00000-0  16829-4 0  9993
2 40037  97.9056 307.1752 0012995 267.1711  92.8017 14.86319713196701
FLOCK 1C-5              
1 40038U 14033AE  18034.76336101 -.00000158  00000-0 -10646-4 0  9996
2 40038  97.9242 312.6524 0013203 251.2390 108.7409 14.89325528196972
PERSEUS-M1              
1 40039U 14033AF  18035.18254708  .00000086  00000-0  16223-4 0  9991
2 40039  97.9058 307.0753 0012850 261.5360  98.4398 14.85942154196729
FLOCK 1C-8              
1 40040U 14033AG  18034.71925558  .00000450  00000-0  50997-4 0  9990
2 40040  97.9291 315.5380 0011697 236.4174 123.6027 14.91285638197143
FLOCK 1C-3              
1 40041U 14033AH  18034.77207441  .00000220  00000-0  29419-4 0  9991
2 40041  97.9222 312.3503 0012017 248.7500 111.2494 14.89009230196943
POLYITAN-1              
1 40042U 14033AJ  18034.75305161  .00000282  00000-0  36612-4 0  9999
2 40042  97.9167 310.4750 0013329 251.6501 108.3266 14.88296515196864
TIGRISAT                
1 40043U 14033AK  18034.92546427  .00000100  00000-0  22500-4 0  9991
2 40043  97.8282 276.9503 0058720 268.3201  91.1281 14.74091942194675
LEMUR-1                 
1 40044U 14033AL  18034.66250546  .00000122  00000-0  25900-4 0  9998
2 40044  97.8278 276.3713 0057883 270.5322  88.9255 14.73919900194910
AEROCUBE 6A             
1 40045U 14033AM  18034.88076845  .00000257  00000-0  44849-4 0  9993
2 40045  97.8430 278.7457 0056834 263.3324  96.1414 14.75053112194632
AEROCUBE 6B             
1 40046U 14033AN  18034.88115360  .00000240  00000-0  42371-4 0  9990
2 40046  97.8410 278.6442 0055947 262.6018  96.8832 14.75043038194637
UKUBE-1                 
1 40074U 14037F   18035.16566936  .00000204  00000-0  31858-4 0  9994
2 40074  98.3676 165.8770 0005309  41.8808 318.2801 14.83710646193574
BRITE-PL 2              
1 40119U 14049B   18035.19968153  .00000085  00000-0  16581-4 0  9990
2 40119  97.9237 124.7546 0018599  55.2589 305.0373 14.84247407187579
FIREBIRD 4              
1 40378U 15003C   18035.19737666  .00001777  00000-0  77276-4 0  9998
2 40378  99.1039 270.5619 0132309 313.0145  46.0057 15.16672983166160
GRIFEX                  
1 40379U 15003D   18035.18260674  .00001247  00000-0  59211-4 0  9999
2 40379  99.1075 267.3148 0139041 323.7662  35.4206 15.13921569165974
EXOCUBE                 
1 40380U 15003E   18035.21363355  .00000900  00000-0  45804-4 0  9993
2 40380  99.1125 265.5657 0143327 329.5908  29.7060 15.12210182165858
DEORBITSAIL             
1 40719U 15032E   18035.21135322  .00000323  00000-0  53890-4 0  9995
2 40719  97.9597 290.7839 0017583 113.9848 246.3205 14.76320715138555
TIANWANG 1C (TW-1C)     
1 40926U 15051B   18035.16695679  .00005908  00000-0  11900-3 0  9995
2 40926  97.2011  78.2034 0012013  52.9912  31.6999 15.46884836132738
TIANWANG 1B (TW-1B)     
1 40927U 15051C   18035.14890227  .00005703  00000-0  11964-3 0  9993
2 40927  97.2104  78.0899 0012311  62.2671  22.0003 15.45705804132653
TIANWANG 1A (TW-1A)     
1 40928U 15051D   18035.11594433  .00002436  00000-0  67336-4 0  9996
2 40928  97.2017  71.6831 0014392  84.7486   0.1254 15.37895883132323
LEMUR-2-JOEL            
1 40932U 15052C   18022.05686446  .00000903  00000-0  35077-4 0  9991
2 40932   6.0080 104.9865 0013237 127.5635 232.5896 14.77616152125432
LEMUR-2-CHRIS           
1 40933U 15052D   18022.03750727  .00000781  00000-0  18308-4 0  9996
2 40933   5.9967 103.8145 0013467 133.8871 225.9485 14.77767237125443
LEMUR-2-JEROEN          
1 40934U 15052E   18023.05094034 -.00101216  00000-0 -14310-1 0  9995
2 40934   6.0108 102.9692 0008665 125.4218 236.4358 14.77011567125495
LEMUR-2-PETER           
1 40935U 15052F   18022.09190452  .00000749  00000-0  15359-4 0  9994
2 40935   5.9982 111.9200 0009999 114.2091 246.6846 14.76885978125359
EXACTVIEW 9             
1 40936U 15052G   18034.39642607  .00000839  00000-0  28392-4 0  9996
2 40936   5.9977  27.6235 0011240 269.8003  90.1491 14.76344012127165
ATHENOXAT 1             
1 41168U 15077C   18035.29386282  .00001812  00000-0  63165-4 0  9994
2 41168  14.9889 272.6984 0012028 355.7028 146.9788 15.12424469118227
GALASSIA                
1 41170U 15077E   18034.39259759  .00001647  00000-0  53097-4 0  9994
2 41170  14.9885 274.4668 0013280   2.8217 357.2178 15.12834605118133
VELOX 2                 
1 41171U 15077F   18034.39296939  .00001341  00000-0  40001-4 0  9998
2 41171  14.9913 292.5155 0009101 308.6445  51.3061 15.10424214117978
AGGIESAT 4              
1 41313U 98067HP  18034.91752666  .00129266  18432-4  23225-3 0  9995
2 41313  51.6297 235.5548 0002728 254.0532 106.0178 16.01394062115659
HORYU-IV                
1 41340U 16012D   18034.51591074  .00000451  00000-0  27802-4 0  9993
2 41340  31.0059  77.4664 0014070 207.7039 152.2848 15.00874354107797
OUFTI-1                 
1 41458U 16025C   18035.14981542  .00001865  00000-0  10196-3 0  9997
2 41458  98.1557  90.8076 0170400 233.1636 125.3870 15.04218595 97434
E-ST@R-II               
1 41459U 16025D   18034.86828657  .00000885  00000-0  51317-4 0  9995
2 41459  98.1558  90.3995 0170684 234.5728 123.9442 15.03980003 97384
AAUSAT 4                
1 41460U 16025E   18035.16582305  .00002244  00000-0  12132-3 0  9990
2 41460  98.1470  91.0217 0162889 230.6597 128.0135 15.05237588 97473
DIWATA-1                
1 41463U 98067HT  18035.13323221  .00008185  00000-0  79345-4 0  9996
2 41463  51.6412 290.6013 0000345  41.2243 108.8154 15.67374380101113
FLOCK 2E'-1             
1 41479U 98067HZ  18034.89093735  .00047609  00000-0  17344-3 0  9993
2 41479  51.6296 261.8333 0001971 172.6636 187.4398 15.87956413 98412
FLOCK 2E'-3             
1 41480U 98067JA  18035.03181811  .00037920  00000-0  15661-3 0  9990
2 41480  51.6228 261.9822 0001215 151.8281 208.2789 15.85487253 98414
FLOCK 2E-1              
1 41483U 98067JD  18035.21948905  .00024536  00000-0  12994-3 0  9993
2 41483  51.6323 266.4655 0001351 161.0477 199.0575 15.80418027 98236
FLOCK 2E-3              
1 41486U 98067JG  18034.87710598  .00073674  00000-0  33150-3 0  9996
2 41486  51.6273 267.8388 0001796 197.7940 162.3000 15.83403439 98202
FLOCK 2E-4              
1 41487U 98067JH  18035.06060037  .00132846  17690-4  40924-3 0  9996
2 41487  51.6244 264.5184 0006084 207.3050 152.7637 15.91529963 98269
FLOCK 2E-6              
1 41563U 98067JM  18034.85266311  .00483392  12458-3  58784-3 0  9994
2 41563  51.6213 265.2911 0006303 225.9851 134.0643 16.07468604 96300
FLOCK 2E-5              
1 41564U 98067JN  18034.86432333  .00017320  00000-0  11018-3 0  9995
2 41564  51.6256 274.5714 0001470  49.7627 310.3502 15.76570776 96172
FLOCK 2E-7              
1 41565U 98067JP  18034.85821385  .00042181  00000-0  16221-3 0  9998
2 41565  51.6241 260.7917 0001340 257.7025 102.3829 15.86909672 96250
FLOCK 2E'-5             
1 41567U 98067JR  18034.89599303  .00015873  00000-0  10820-3 0  9993
2 41567  51.6321 277.8591 0002219 304.4487  55.6303 15.75056185 96006
FLOCK 2E'-6             
1 41568U 98067JS  18035.17527254  .00065549  00000-0  32263-3 0  9992
2 41568  51.6263 268.3008 0001509 261.5419  98.5412 15.81528096 96187
